[{"OBJECT_NAME":"STARLINK-5547","OBJECT_ID":"2023-013X","EPOCH":"2026-03-09T22:00:01.999584","MEAN_MOTION":15.18674823,"ECCENTRICITY":0.00015552,"INCLINATION":42.9992,"RA_OF_ASC_NODE":298.2701,"ARG_OF_PERICENTER":289.0622,"MEAN_ANOMALY":57.5598,"EPHEMERIS_TYPE":0,"CLASSIFICATION_TYPE":"U","NORAD_CAT_ID":55352,"ELEMENT_SET_NO":999,"REV_AT_EPOCH":578,"BSTAR":0.050453363,"MEAN_MOTION_DOT":0.01159018,"MEAN_MOTION_DDOT":0},{"OBJECT_NAME":"SCORPION (RS89S)","OBJECT_ID":"2025-313AX","EPOCH":"2026-03-09T23:09:54.194112","MEAN_MOTION":15.2196038,"ECCENTRICITY":0.00105059,"INCLINATION":97.4004,"RA_OF_ASC_NODE":145.3058,"ARG_OF_PERICENTER":344.4953,"MEAN_ANOMALY":15.596,"EPHEMERIS_TYPE":0,"CLASSIFICATION_TYPE":"U","NORAD_CAT_ID":67293,"ELEMENT_SET_NO":999,"REV_AT_EPOCH":1086,"BSTAR":0.00025386995,"MEAN_MOTION_DOT":5.728e-5,"MEAN_MOTION_DDOT":0}]
